[{"OBJECT_NAME":"STARLINK-37069","OBJECT_ID":"2026-049S","EPOCH":"2026-04-12T07:47:01.262688","MEAN_MOTION":15.75204544,"ECCENTRICITY":0.00014128,"INCLINATION":97.284,"RA_OF_ASC_NODE":123.2392,"ARG_OF_PERICENTER":111.0785,"MEAN_ANOMALY":249.0632,"EPHEMERIS_TYPE":0,"CLASSIFICATION_TYPE":"U","NORAD_CAT_ID":68158,"ELEMENT_SET_NO":999,"REV_AT_EPOCH":471,"BSTAR":0.0011159979,"MEAN_MOTION_DOT":0.00169786,"MEAN_MOTION_DDOT":0},{"OBJECT_NAME":"STARLINK-37053","OBJECT_ID":"2026-049T","EPOCH":"2026-04-12T07:08:54.259872","MEAN_MOTION":15.75223849,"ECCENTRICITY":0.00025991,"INCLINATION":97.2845,"RA_OF_ASC_NODE":123.2756,"ARG_OF_PERICENTER":113.4395,"MEAN_ANOMALY":246.7143,"EPHEMERIS_TYPE":0,"CLASSIFICATION_TYPE":"U","NORAD_CAT_ID":68159,"ELEMENT_SET_NO":999,"REV_AT_EPOCH":471,"BSTAR":0.0011258265,"MEAN_MOTION_DOT":0.00171473,"MEAN_MOTION_DDOT":0},{"OBJECT_NAME":"STARLINK-36306","OBJECT_ID":"2026-049U","EPOCH":"2026-04-12T00:04:01.531200","MEAN_MOTION":15.75274264,"ECCENTRICITY":0.00011586,"INCLINATION":97.2848,"RA_OF_ASC_NODE":122.9125,"ARG_OF_PERICENTER":107.7076,"MEAN_ANOMALY":252.4316,"EPHEMERIS_TYPE":0,"CLASSIFICATION_TYPE":"U","NORAD_CAT_ID":68160,"ELEMENT_SET_NO":999,"REV_AT_EPOCH":466,"BSTAR":0.0012953005,"MEAN_MOTION_DOT":0.00198347,"MEAN_MOTION_DDOT":0},{"OBJECT_NAME":"STARLINK-37057","OBJECT_ID":"2026-049V","EPOCH":"2026-04-12T00:59:55.902336","MEAN_MOTION":15.75188018,"ECCENTRICITY":0.00014658,"INCLINATION":97.2846,"RA_OF_ASC_NODE":123.0127,"ARG_OF_PERICENTER":17.0326,"MEAN_ANOMALY":343.0988,"EPHEMERIS_TYPE":0,"CLASSIFICATION_TYPE":"U","NORAD_CAT_ID":68161,"ELEMENT_SET_NO":999,"REV_AT_EPOCH":467,"BSTAR":0.0005876839,"MEAN_MOTION_DOT":0.00088432,"MEAN_MOTION_DDOT":0},{"OBJECT_NAME":"STARLINK-37013","OBJECT_ID":"2026-049W","EPOCH":"2026-04-12T06:00:02.000160","MEAN_MOTION":15.75325065,"ECCENTRICITY":0.00014004,"INCLINATION":97.2849,"RA_OF_ASC_NODE":123.2981,"ARG_OF_PERICENTER":86.744,"MEAN_ANOMALY":160.3256,"EPHEMERIS_TYPE":0,"CLASSIFICATION_TYPE":"U","NORAD_CAT_ID":68162,"ELEMENT_SET_NO":999,"REV_AT_EPOCH":601,"BSTAR":-0.0019076967,"MEAN_MOTION_DOT":-0.00277271,"MEAN_MOTION_DDOT":0},{"OBJECT_NAME":"STARLINK-36958","OBJECT_ID":"2026-049X","EPOCH":"2026-04-12T07:11:57.292224","MEAN_MOTION":15.75200475,"ECCENTRICITY":0.00019279,"INCLINATION":97.2857,"RA_OF_ASC_NODE":123.274,"ARG_OF_PERICENTER":111.556,"MEAN_ANOMALY":248.5911,"EPHEMERIS_TYPE":0,"CLASSIFICATION_TYPE":"U","NORAD_CAT_ID":68163,"ELEMENT_SET_NO":999,"REV_AT_EPOCH":471,"BSTAR":0.00058500311,"MEAN_MOTION_DOT":0.00088075,"MEAN_MOTION_DDOT":0},{"OBJECT_NAME":"STARLINK-37002","OBJECT_ID":"2026-049Y","EPOCH":"2026-04-12T06:00:02.000160","MEAN_MOTION":15.75328043,"ECCENTRICITY":0.00012813,"INCLINATION":97.2846,"RA_OF_ASC_NODE":123.2927,"ARG_OF_PERICENTER":87.43,"MEAN_ANOMALY":147.6422,"EPHEMERIS_TYPE":0,"CLASSIFICATION_TYPE":"U","NORAD_CAT_ID":68164,"ELEMENT_SET_NO":999,"REV_AT_EPOCH":601,"BSTAR":-0.0019584116,"MEAN_MOTION_DOT":-0.00284434,"MEAN_MOTION_DDOT":0},{"OBJECT_NAME":"STARLINK-36971","OBJECT_ID":"2026-049Z","EPOCH":"2026-04-12T05:49:37.157952","MEAN_MOTION":15.75235359,"ECCENTRICITY":8.281e-5,"INCLINATION":97.2851,"RA_OF_ASC_NODE":123.1993,"ARG_OF_PERICENTER":31.0784,"MEAN_ANOMALY":329.053,"EPHEMERIS_TYPE":0,"CLASSIFICATION_TYPE":"U","NORAD_CAT_ID":68165,"ELEMENT_SET_NO":999,"REV_AT_EPOCH":470,"BSTAR":0.0004645511,"MEAN_MOTION_DOT":0.00069865,"MEAN_MOTION_DDOT":0},{"OBJECT_NAME":"STARLINK-36273","OBJECT_ID":"2026-049AA","EPOCH":"2026-04-11T13:22:39.393696","MEAN_MOTION":15.75266916,"ECCENTRICITY":0.00011871,"INCLINATION":97.2853,"RA_OF_ASC_NODE":122.4455,"ARG_OF_PERICENTER":90.9002,"MEAN_ANOMALY":269.24,"EPHEMERIS_TYPE":0,"CLASSIFICATION_TYPE":"U","NORAD_CAT_ID":68166,"ELEMENT_SET_NO":999,"REV_AT_EPOCH":459,"BSTAR":0.002206631,"MEAN_MOTION_DOT":0.00343752,"MEAN_MOTION_DDOT":0},{"OBJECT_NAME":"STARLINK-36969","OBJECT_ID":"2026-050A","EPOCH":"2026-04-12T06:00:02.000160","MEAN_MOTION":15.61997595,"ECCENTRICITY":0.00011983,"INCLINATION":53.1592,"RA_OF_ASC_NODE":113.9549,"ARG_OF_PERICENTER":81.9589,"MEAN_ANOMALY":77.388,"EPHEMERIS_TYPE":0,"CLASSIFICATION_TYPE":"U","NORAD_CAT_ID":68167,"ELEMENT_SET_NO":999,"REV_AT_EPOCH":583,"BSTAR":-0.023917988,"MEAN_MOTION_DOT":-0.0188381,"MEAN_MOTION_DDOT":0},{"OBJECT_NAME":"STARLINK-36984","OBJECT_ID":"2026-050B","EPOCH":"2026-04-12T06:00:02.000160","MEAN_MOTION":15.49825,"ECCENTRICITY":0.00015404,"INCLINATION":53.1598,"RA_OF_ASC_NODE":114.4527,"ARG_OF_PERICENTER":78.8993,"MEAN_ANOMALY":194.8219,"EPHEMERIS_TYPE":0,"CLASSIFICATION_TYPE":"U","NORAD_CAT_ID":68168,"ELEMENT_SET_NO":999,"REV_AT_EPOCH":583,"BSTAR":-0.014846352,"MEAN_MOTION_DOT":-0.00774213,"MEAN_MOTION_DDOT":0},{"OBJECT_NAME":"STARLINK-37077","OBJECT_ID":"2026-050C","EPOCH":"2026-04-12T06:00:02.000160","MEAN_MOTION":15.63769482,"ECCENTRICITY":0.00012811,"INCLINATION":53.1595,"RA_OF_ASC_NODE":113.8818,"ARG_OF_PERICENTER":87.1561,"MEAN_ANOMALY":108.0947,"EPHEMERIS_TYPE":0,"CLASSIFICATION_TYPE":"U","NORAD_CAT_ID":68169,"ELEMENT_SET_NO":999,"REV_AT_EPOCH":583,"BSTAR":-0.022297381,"MEAN_MOTION_DOT":-0.01883684,"MEAN_MOTION_DDOT":0},{"OBJECT_NAME":"STARLINK-37003","OBJECT_ID":"2026-050D","EPOCH":"2026-04-12T06:00:02.000160","MEAN_MOTION":15.64255298,"ECCENTRICITY":0.00013045,"INCLINATION":53.1595,"RA_OF_ASC_NODE":113.8585,"ARG_OF_PERICENTER":89.221,"MEAN_ANOMALY":117.34,"EPHEMERIS_TYPE":0,"CLASSIFICATION_TYPE":"U","NORAD_CAT_ID":68170,"ELEMENT_SET_NO":999,"REV_AT_EPOCH":583,"BSTAR":-0.021852431,"MEAN_MOTION_DOT":-0.01882417,"MEAN_MOTION_DDOT":0},{"OBJECT_NAME":"STARLINK-37034","OBJECT_ID":"2026-050E","EPOCH":"2026-04-12T06:00:02.000160","MEAN_MOTION":15.62519383,"ECCENTRICITY":0.00012575,"INCLINATION":53.1595,"RA_OF_ASC_NODE":113.9024,"ARG_OF_PERICENTER":86.4982,"MEAN_ANOMALY":98.2647,"EPHEMERIS_TYPE":0,"CLASSIFICATION_TYPE":"U","NORAD_CAT_ID":68171,"ELEMENT_SET_NO":999,"REV_AT_EPOCH":583,"BSTAR":-0.023451276,"MEAN_MOTION_DOT":-0.01885211,"MEAN_MOTION_DDOT":0},{"OBJECT_NAME":"STARLINK-37031","OBJECT_ID":"2026-050F","EPOCH":"2026-04-12T06:00:02.000160","MEAN_MOTION":15.65446344,"ECCENTRICITY":0.00012631,"INCLINATION":53.1593,"RA_OF_ASC_NODE":113.8073,"ARG_OF_PERICENTER":95.1921,"MEAN_ANOMALY":136.2556,"EPHEMERIS_TYPE":0,"CLASSIFICATION_TYPE":"U","NORAD_CAT_ID":68172,"ELEMENT_SET_NO":999,"REV_AT_EPOCH":583,"BSTAR":-0.020890531,"MEAN_MOTION_DOT":-0.01887161,"MEAN_MOTION_DDOT":0},{"OBJECT_NAME":"STARLINK-37076","OBJECT_ID":"2026-050G","EPOCH":"2026-04-12T06:00:02.000160","MEAN_MOTION":15.66475702,"ECCENTRICITY":0.00013003,"INCLINATION":53.1595,"RA_OF_ASC_NODE":113.7714,"ARG_OF_PERICENTER":97.0584,"MEAN_ANOMALY":151.8631,"EPHEMERIS_TYPE":0,"CLASSIFICATION_TYPE":"U","NORAD_CAT_ID":68173,"ELEMENT_SET_NO":999,"REV_AT_EPOCH":583,"BSTAR":-0.0199792,"MEAN_MOTION_DOT":-0.01882442,"MEAN_MOTION_DDOT":0}]
