STARLINK-37069          
1 68158U 26049S   26102.32432017  .00169786  00000+0  11160-2 0  9999
2 68158  97.2840 123.2392 0001412 111.0785 249.0632 15.75204544  4718
STARLINK-37053          
1 68159U 26049T   26102.29785023  .00171473  00000+0  11258-2 0  9998
2 68159  97.2845 123.2756 0002599 113.4395 246.7143 15.75223849  4718
STARLINK-36306          
1 68160U 26049U   26102.00279550  .00198347  00000+0  12953-2 0  9994
2 68160  97.2848 122.9125 0001158 107.7076 252.4316 15.75274264  4668
STARLINK-37057          
1 68161U 26049V   26102.04161924  .00088432  00000+0  58768-3 0  9992
2 68161  97.2846 123.0127 0001465  17.0326 343.0988 15.75188018  4677
STARLINK-37013          
1 68162U 26049W   26102.25002315 -.00277271  00000+0 -19077-2 0  9996
2 68162  97.2849 123.2981 0001400  86.7440 160.3256 15.75325065  6013
STARLINK-36958          
1 68163U 26049X   26102.29996866  .00088075  00000+0  58500-3 0  9999
2 68163  97.2857 123.2740 0001927 111.5560 248.5911 15.75200475  4719
STARLINK-37002          
1 68164U 26049Y   26102.25002315 -.00284434  00000+0 -19584-2 0  9990
2 68164  97.2846 123.2927 0001281  87.4300 147.6422 15.75328043  6014
STARLINK-36971          
1 68165U 26049Z   26102.24279118  .00069865  00000+0  46455-3 0  9992
2 68165  97.2851 123.1993 0000828  31.0784 329.0530 15.75235359  4707
STARLINK-36273          
1 68166U 26049AA  26101.55740039  .00343752  00000+0  22066-2 0  9992
2 68166  97.2853 122.4455 0001187  90.9002 269.2400 15.75266916  4592
STARLINK-36969          
1 68167U 26050A   26102.25002315 -.01883810  00000+0 -23918-1 0  9994
2 68167  53.1592 113.9549 0001198  81.9589  77.3880 15.61997595  5832
STARLINK-36984          
1 68168U 26050B   26102.25002315 -.00774213  00000+0 -14846-1 0  9990
2 68168  53.1598 114.4527 0001540  78.8993 194.8219 15.49825000  5834
STARLINK-37077          
1 68169U 26050C   26102.25002315 -.01883684  00000+0 -22297-1 0  9994
2 68169  53.1595 113.8818 0001281  87.1561 108.0947 15.63769482  5836
STARLINK-37003          
1 68170U 26050D   26102.25002315 -.01882417  00000+0 -21852-1 0  9995
2 68170  53.1595 113.8585 0001304  89.2210 117.3400 15.64255298  5832
STARLINK-37034          
1 68171U 26050E   26102.25002315 -.01885211  00000+0 -23451-1 0  9998
2 68171  53.1595 113.9024 0001257  86.4982  98.2647 15.62519383  5830
STARLINK-37031          
1 68172U 26050F   26102.25002315 -.01887161  00000+0 -20891-1 0  9990
2 68172  53.1593 113.8073 0001263  95.1921 136.2556 15.65446344  5830
STARLINK-37076          
1 68173U 26050G   26102.25002315 -.01882442  00000+0 -19979-1 0  9993
2 68173  53.1595 113.7714 0001300  97.0584 151.8631 15.66475702  5830
